<?xml version="1.0" encoding="UTF-8"?>
<ndm xmlns:xsi="http://www.w3.org/2001/XMLSchema-instance" xsi:noNamespaceSchemaLocation="https://sanaregistry.org/r/ndmxml_unqualified/ndmxml-2.0.0-master-2.0.xsd">
<omm id="CCSDS_OMM_VERS" version="2.0">
<header><CREATION_DATE/><ORIGINATOR/></header><body><segment><metadata><OBJECT_NAME>KUIPER-00079</OBJECT_NAME><OBJECT_ID>2025-151L</OBJECT_ID><CENTER_NAME>EARTH</CENTER_NAME><REF_FRAME>TEME</REF_FRAME><TIME_SYSTEM>UTC</TIME_SYSTEM><MEAN_ELEMENT_THEORY>SGP4</MEAN_ELEMENT_THEORY></metadata><data><meanElements><EPOCH>2025-12-23T18:56:07.876320</EPOCH><MEAN_MOTION>14.79931784</MEAN_MOTION><ECCENTRICITY>.0011926</ECCENTRICITY><INCLINATION>51.8993</INCLINATION><RA_OF_ASC_NODE>276.2030</RA_OF_ASC_NODE><ARG_OF_PERICENTER>351.8637</ARG_OF_PERICENTER><MEAN_ANOMALY>8.2131</MEAN_ANOMALY></meanElements><tleParameters><EPHEMERIS_TYPE>0</EPHEMERIS_TYPE><CLASSIFICATION_TYPE>U</CLASSIFICATION_TYPE><NORAD_CAT_ID>64826</NORAD_CAT_ID><ELEMENT_SET_NO>999</ELEMENT_SET_NO><REV_AT_EPOCH>2526</REV_AT_EPOCH><BSTAR>.61616E-3</BSTAR><MEAN_MOTION_DOT>.4481E-4</MEAN_MOTION_DOT><MEAN_MOTION_DDOT>0</MEAN_MOTION_DDOT></tleParameters></data></segment></body></omm>
<omm id="CCSDS_OMM_VERS" version="2.0">
<header><CREATION_DATE/><ORIGINATOR/></header><body><segment><metadata><OBJECT_NAME>KUIPER-00080</OBJECT_NAME><OBJECT_ID>2025-151M</OBJECT_ID><CENTER_NAME>EARTH</CENTER_NAME><REF_FRAME>TEME</REF_FRAME><TIME_SYSTEM>UTC</TIME_SYSTEM><MEAN_ELEMENT_THEORY>SGP4</MEAN_ELEMENT_THEORY></metadata><data><meanElements><EPOCH>2025-12-23T19:44:35.532672</EPOCH><MEAN_MOTION>14.79948876</MEAN_MOTION><ECCENTRICITY>.0006133</ECCENTRICITY><INCLINATION>51.8981</INCLINATION><RA_OF_ASC_NODE>276.0567</RA_OF_ASC_NODE><ARG_OF_PERICENTER>15.0873</ARG_OF_PERICENTER><MEAN_ANOMALY>345.0272</MEAN_ANOMALY></meanElements><tleParameters><EPHEMERIS_TYPE>0</EPHEMERIS_TYPE><CLASSIFICATION_TYPE>U</CLASSIFICATION_TYPE><NORAD_CAT_ID>64827</NORAD_CAT_ID><ELEMENT_SET_NO>999</ELEMENT_SET_NO><REV_AT_EPOCH>2407</REV_AT_EPOCH><BSTAR>-.25893E-3</BSTAR><MEAN_MOTION_DOT>-.2197E-4</MEAN_MOTION_DOT><MEAN_MOTION_DDOT>0</MEAN_MOTION_DDOT></tleParameters></data></segment></body></omm>
<omm id="CCSDS_OMM_VERS" version="2.0">
<header><CREATION_DATE/><ORIGINATOR/></header><body><segment><metadata><OBJECT_NAME>KUIPER-00082</OBJECT_NAME><OBJECT_ID>2025-151N</OBJECT_ID><CENTER_NAME>EARTH</CENTER_NAME><REF_FRAME>TEME</REF_FRAME><TIME_SYSTEM>UTC</TIME_SYSTEM><MEAN_ELEMENT_THEORY>SGP4</MEAN_ELEMENT_THEORY></metadata><data><meanElements><EPOCH>2025-12-23T17:38:07.232352</EPOCH><MEAN_MOTION>14.79948657</MEAN_MOTION><ECCENTRICITY>.000553</ECCENTRICITY><INCLINATION>51.9016</INCLINATION><RA_OF_ASC_NODE>263.9630</RA_OF_ASC_NODE><ARG_OF_PERICENTER>41.4626</ARG_OF_PERICENTER><MEAN_ANOMALY>318.6755</MEAN_ANOMALY></meanElements><tleParameters><EPHEMERIS_TYPE>0</EPHEMERIS_TYPE><CLASSIFICATION_TYPE>U</CLASSIFICATION_TYPE><NORAD_CAT_ID>64828</NORAD_CAT_ID><ELEMENT_SET_NO>999</ELEMENT_SET_NO><REV_AT_EPOCH>2423</REV_AT_EPOCH><BSTAR>.68567E-3</BSTAR><MEAN_MOTION_DOT>.5012E-4</MEAN_MOTION_DOT><MEAN_MOTION_DDOT>0</MEAN_MOTION_DDOT></tleParameters></data></segment></body></omm>
<omm id="CCSDS_OMM_VERS" version="2.0">
<header><CREATION_DATE/><ORIGINATOR/></header><body><segment><metadata><OBJECT_NAME>KUIPER-00083</OBJECT_NAME><OBJECT_ID>2025-151P</OBJECT_ID><CENTER_NAME>EARTH</CENTER_NAME><REF_FRAME>TEME</REF_FRAME><TIME_SYSTEM>UTC</TIME_SYSTEM><MEAN_ELEMENT_THEORY>SGP4</MEAN_ELEMENT_THEORY></metadata><data><meanElements><EPOCH>2025-12-22T23:36:39.971808</EPOCH><MEAN_MOTION>14.79926906</MEAN_MOTION><ECCENTRICITY>.001139</ECCENTRICITY><INCLINATION>51.9023</INCLINATION><RA_OF_ASC_NODE>274.7783</RA_OF_ASC_NODE><ARG_OF_PERICENTER>350.5157</ARG_OF_PERICENTER><MEAN_ANOMALY>9.5589</MEAN_ANOMALY></meanElements><tleParameters><EPHEMERIS_TYPE>0</EPHEMERIS_TYPE><CLASSIFICATION_TYPE>U</CLASSIFICATION_TYPE><NORAD_CAT_ID>64829</NORAD_CAT_ID><ELEMENT_SET_NO>999</ELEMENT_SET_NO><REV_AT_EPOCH>2520</REV_AT_EPOCH><BSTAR>-.13332E-2</BSTAR><MEAN_MOTION_DOT>-.10382E-3</MEAN_MOTION_DOT><MEAN_MOTION_DDOT>0</MEAN_MOTION_DDOT></tleParameters></data></segment></body></omm>
<omm id="CCSDS_OMM_VERS" version="2.0">
<header><CREATION_DATE/><ORIGINATOR/></header><body><segment><metadata><OBJECT_NAME>KUIPER-00084</OBJECT_NAME><OBJECT_ID>2025-151Q</OBJECT_ID><CENTER_NAME>EARTH</CENTER_NAME><REF_FRAME>TEME</REF_FRAME><TIME_SYSTEM>UTC</TIME_SYSTEM><MEAN_ELEMENT_THEORY>SGP4</MEAN_ELEMENT_THEORY></metadata><data><meanElements><EPOCH>2025-12-23T18:46:51.163104</EPOCH><MEAN_MOTION>14.80041783</MEAN_MOTION><ECCENTRICITY>.0011546</ECCENTRICITY><INCLINATION>51.9013</INCLINATION><RA_OF_ASC_NODE>281.2220</RA_OF_ASC_NODE><ARG_OF_PERICENTER>325.3754</ARG_OF_PERICENTER><MEAN_ANOMALY>34.6455</MEAN_ANOMALY></meanElements><tleParameters><EPHEMERIS_TYPE>0</EPHEMERIS_TYPE><CLASSIFICATION_TYPE>U</CLASSIFICATION_TYPE><NORAD_CAT_ID>64830</NORAD_CAT_ID><ELEMENT_SET_NO>999</ELEMENT_SET_NO><REV_AT_EPOCH>2399</REV_AT_EPOCH><BSTAR>-.13811E-3</BSTAR><MEAN_MOTION_DOT>-.1281E-4</MEAN_MOTION_DOT><MEAN_MOTION_DDOT>0</MEAN_MOTION_DDOT></tleParameters></data></segment></body></omm>
<omm id="CCSDS_OMM_VERS" version="2.0">
<header><CREATION_DATE/><ORIGINATOR/></header><body><segment><metadata><OBJECT_NAME>KUIPER-00085</OBJECT_NAME><OBJECT_ID>2025-151R</OBJECT_ID><CENTER_NAME>EARTH</CENTER_NAME><REF_FRAME>TEME</REF_FRAME><TIME_SYSTEM>UTC</TIME_SYSTEM><MEAN_ELEMENT_THEORY>SGP4</MEAN_ELEMENT_THEORY></metadata><data><meanElements><EPOCH>2025-12-23T16:49:38.297280</EPOCH><MEAN_MOTION>14.79980959</MEAN_MOTION><ECCENTRICITY>.0007777</ECCENTRICITY><INCLINATION>51.9036</INCLINATION><RA_OF_ASC_NODE>264.1287</RA_OF_ASC_NODE><ARG_OF_PERICENTER>12.0305</ARG_OF_PERICENTER><MEAN_ANOMALY>348.0841</MEAN_ANOMALY></meanElements><tleParameters><EPHEMERIS_TYPE>0</EPHEMERIS_TYPE><CLASSIFICATION_TYPE>U</CLASSIFICATION_TYPE><NORAD_CAT_ID>64831</NORAD_CAT_ID><ELEMENT_SET_NO>999</ELEMENT_SET_NO><REV_AT_EPOCH>2422</REV_AT_EPOCH><BSTAR>.55283E-3</BSTAR><MEAN_MOTION_DOT>.4001E-4</MEAN_MOTION_DOT><MEAN_MOTION_DDOT>0</MEAN_MOTION_DDOT></tleParameters></data></segment></body></omm>
<omm id="CCSDS_OMM_VERS" version="2.0">
<header><CREATION_DATE/><ORIGINATOR/></header><body><segment><metadata><OBJECT_NAME>KUIPER-00086</OBJECT_NAME><OBJECT_ID>2025-151S</OBJECT_ID><CENTER_NAME>EARTH</CENTER_NAME><REF_FRAME>TEME</REF_FRAME><TIME_SYSTEM>UTC</TIME_SYSTEM><MEAN_ELEMENT_THEORY>SGP4</MEAN_ELEMENT_THEORY></metadata><data><meanElements><EPOCH>2025-12-23T05:13:19.218720</EPOCH><MEAN_MOTION>14.79930854</MEAN_MOTION><ECCENTRICITY>.0011196</ECCENTRICITY><INCLINATION>51.9059</INCLINATION><RA_OF_ASC_NODE>276.2497</RA_OF_ASC_NODE><ARG_OF_PERICENTER>347.5299</ARG_OF_PERICENTER><MEAN_ANOMALY>12.5385</MEAN_ANOMALY></meanElements><tleParameters><EPHEMERIS_TYPE>0</EPHEMERIS_TYPE><CLASSIFICATION_TYPE>U</CLASSIFICATION_TYPE><NORAD_CAT_ID>64832</NORAD_CAT_ID><ELEMENT_SET_NO>999</ELEMENT_SET_NO><REV_AT_EPOCH>2401</REV_AT_EPOCH><BSTAR>-.2340905E-3</BSTAR><MEAN_MOTION_DOT>-.201E-4</MEAN_MOTION_DOT><MEAN_MOTION_DDOT>0</MEAN_MOTION_DDOT></tleParameters></data></segment></body></omm>
<omm id="CCSDS_OMM_VERS" version="2.0">
<header><CREATION_DATE/><ORIGINATOR/></header><body><segment><metadata><OBJECT_NAME>KUIPER-00087</OBJECT_NAME><OBJECT_ID>2025-151T</OBJECT_ID><CENTER_NAME>EARTH</CENTER_NAME><REF_FRAME>TEME</REF_FRAME><TIME_SYSTEM>UTC</TIME_SYSTEM><MEAN_ELEMENT_THEORY>SGP4</MEAN_ELEMENT_THEORY></metadata><data><meanElements><EPOCH>2025-12-23T02:25:21.844992</EPOCH><MEAN_MOTION>14.79558128</MEAN_MOTION><ECCENTRICITY>.00012404</ECCENTRICITY><INCLINATION>51.8982</INCLINATION><RA_OF_ASC_NODE>259.2537</RA_OF_ASC_NODE><ARG_OF_PERICENTER>135.8079</ARG_OF_PERICENTER><MEAN_ANOMALY>224.2982</MEAN_ANOMALY></meanElements><tleParameters><EPHEMERIS_TYPE>0</EPHEMERIS_TYPE><CLASSIFICATION_TYPE>U</CLASSIFICATION_TYPE><NORAD_CAT_ID>64833</NORAD_CAT_ID><ELEMENT_SET_NO>999</ELEMENT_SET_NO><REV_AT_EPOCH>2423</REV_AT_EPOCH><BSTAR>.67438062E-3</BSTAR><MEAN_MOTION_DOT>.4879E-4</MEAN_MOTION_DOT><MEAN_MOTION_DDOT>0</MEAN_MOTION_DDOT></tleParameters></data></segment></body></omm>

</ndm>
