KUIPER-00079            
1 64826U 25151L   25357.78898005  .00004481  00000+0  61616-3 0  9996
2 64826  51.8993 276.2030 0011926 351.8637   8.2131 14.79931784 25268
KUIPER-00080            
1 64827U 25151M   25357.82263348 -.00002197  00000+0 -25893-3 0  9999
2 64827  51.8981 276.0567 0006133  15.0873 345.0272 14.79948876 24070
KUIPER-00082            
1 64828U 25151N   25357.73480593  .00005012  00000+0  68567-3 0  9995
2 64828  51.9016 263.9630 0005530  41.4626 318.6755 14.79948657 24233
KUIPER-00083            
1 64829U 25151P   25356.98379597 -.00010382  00000+0 -13332-2 0  9990
2 64829  51.9023 274.7783 0011390 350.5157   9.5589 14.79926906 25207
KUIPER-00084            
1 64830U 25151Q   25357.78253661 -.00001281  00000+0 -13811-3 0  9995
2 64830  51.9013 281.2220 0011546 325.3754  34.6455 14.80041783 23991
KUIPER-00085            
1 64831U 25151R   25357.70113770  .00004001  00000+0  55283-3 0  9994
2 64831  51.9036 264.1287 0007777  12.0305 348.0841 14.79980959 24226
KUIPER-00086            
1 64832U 25151S   25357.21758355 -.00002010  00000+0 -23409-3 0  9990
2 64832  51.9059 276.2497 0011196 347.5299  12.5385 14.79930854 24019
KUIPER-00087            
1 64833U 25151T   25357.10094728  .00004879  00000+0  67438-3 0  9999
2 64833  51.8982 259.2537 0001240 135.8079 224.2982 14.79558128 24232
